{
  "type": "FeatureCollection",
  "name": "electric_substations",
  "crs": { "type": "name", "properties": { "name": "urn:ogc:def:crs:OGC:1.3:CRS84" } },
  "features": [
    {
      "type": "Feature",
      "properties": { "name": "Esmeralda Tap", "headroom_mw": 45.0, "max_voltage_kv": 345 },
      "geometry": { "type": "Point", "coordinates": [-117.228, 37.778] }
    },
    {
      "type": "Feature",
      "properties": { "name": "Mohave Junction", "headroom_mw": 18.0, "max_voltage_kv": 230 },
      "geometry": { "type": "Point", "coordinates": [-114.045, 35.184] }
    },
    {
      "type": "Feature",
      "properties": { "name": "Juab Valley", "headroom_mw": 60.0, "max_voltage_kv": 500 },
      "geometry": { "type": "Point", "coordinates": [-112.672, 39.697] }
    },
    {
      "type": "Feature",
      "properties": { "name": "Luna Mesa", "headroom_mw": 12.0, "max_voltage_kv": 115 },
      "geometry": { "type": "Point", "coordinates": [-107.758, 32.178] }
    },
    {
      "type": "Feature",
      "properties": { "name": "Nye Distribution", "headroom_mw": 3.0, "max_voltage_kv": 34 },
      "geometry": { "type": "Point", "coordinates": [-116.898, 38.008] }
    }
  ]
}
