{
  "type": "FeatureCollection",
  "name": "hydrography",
  "crs": { "type": "name", "properties": { "name": "urn:ogc:def:crs:OGC:1.3:CRS84" } },
  "features": [
    {
      "type": "Feature",
      "properties": { "GNIS_NAME": "Sample Playa (NV)", "FTYPE": "Playa" },
      "geometry": {
        "type": "Polygon",
        "coordinates": [[
          [-117.26, 37.77], [-117.22, 37.77],
          [-117.22, 37.80], [-117.26, 37.80], [-117.26, 37.77]
        ]]
      }
    },
    {
      "type": "Feature",
      "properties": { "GNIS_NAME": "Sample Reservoir (NM)", "FTYPE": "LakePond" },
      "geometry": {
        "type": "Polygon",
        "coordinates": [[
          [-107.78, 32.16], [-107.74, 32.16],
          [-107.74, 32.19], [-107.78, 32.19], [-107.78, 32.16]
        ]]
      }
    }
  ]
}
