{
  "type": "FeatureCollection",
  "name": "transmission_lines",
  "crs": { "type": "name", "properties": { "name": "urn:ogc:def:crs:OGC:1.3:CRS84" } },
  "features": [
    {
      "type": "Feature",
      "properties": { "id": "TL-NV-01", "voltage_kv": 345, "owner": "HIFLD-sample" },
      "geometry": {
        "type": "LineString",
        "coordinates": [[-117.260, 37.795], [-117.220, 37.770], [-117.180, 37.748]]
      }
    },
    {
      "type": "Feature",
      "properties": { "id": "TL-AZ-01", "voltage_kv": 230, "owner": "HIFLD-sample" },
      "geometry": {
        "type": "LineString",
        "coordinates": [[-114.075, 35.205], [-114.040, 35.180], [-114.010, 35.160]]
      }
    },
    {
      "type": "Feature",
      "properties": { "id": "TL-UT-01", "voltage_kv": 500, "owner": "HIFLD-sample" },
      "geometry": {
        "type": "LineString",
        "coordinates": [[-112.700, 39.715], [-112.670, 39.695], [-112.640, 39.678]]
      }
    },
    {
      "type": "Feature",
      "properties": { "id": "TL-NM-01", "voltage_kv": 115, "owner": "HIFLD-sample" },
      "geometry": {
        "type": "LineString",
        "coordinates": [[-107.780, 32.195], [-107.755, 32.175], [-107.730, 32.158]]
      }
    },
    {
      "type": "Feature",
      "properties": { "id": "TL-LOWV-01", "voltage_kv": 34, "owner": "distribution-should-be-ignored" },
      "geometry": {
        "type": "LineString",
        "coordinates": [[-116.905, 38.015], [-116.895, 38.005]]
      }
    }
  ]
}
